NORAD_CAT_ID,OBJECT_NAME,OBJECT_TYPE,EPOCH,MEAN_MOTION,ECCENTRICITY,INCLINATION,RA_OF_ASC_NODE,ARG_OF_PERICENTER,MEAN_ANOMALY,BSTAR,MEAN_MOTION_DOT,MEAN_MOTION_DDOT,TLE_LINE0,TLE_LINE1,TLE_LINE2,SEMIMAJOR_AXIS,PERIOD,APOGEE,PERIGEE,DECAYED
49423.0,STARLINK-3149,PAYLOAD,2022-07-26 06:17:18,15.08845205,0.0001728,53.2179,45.7421,63.9559,296.161,0.0002105,3.064e-05,0.0,0 STARLINK-3149,1 49423U 21104R   22207.26201630  .00003064  00000-0  21050-3 0  9997,2 49423  53.2179  45.7421 0001728  63.9559 296.1610 15.08845205 38980,6917.864000000001,95.437,540.925,538.534,0.0
49423.0,STARLINK-3149,PAYLOAD,2022-07-26 17:24:59,15.08848479,0.0001666999999999,53.2179,43.6602,64.425,295.6914,0.00022107,3.233e-05,0.0,0 STARLINK-3149,1 49423U 21104R   22207.72569403  .00003233  00000-0  22107-3 0  9995,2 49423  53.2179  43.6602 0001667  64.4250 295.6914 15.08848479 40131,6917.854,95.437,540.873,538.566,0.0
49423.0,STARLINK-3149,PAYLOAD,2022-07-26 20:35:46,15.08848812,0.0001744,53.2176,43.0659,66.2319,293.8856,0.0002892,4.319e-05,0.0,0 STARLINK-3149,1 49423U 21104R   22207.85817412  .00004319  00000-0  28920-3 0  9990,2 49423  53.2176  43.0659 0001744  66.2319 293.8856 15.08848812 39073,6917.853,95.437,540.925,538.512,0.0
49423.0,STARLINK-3149,PAYLOAD,2022-07-27 12:29:37,15.08855867,0.0001683,53.2176,40.0921,63.4331,296.6833,0.00034002,5.13e-05,0.0,0 STARLINK-3149,1 49423U 21104R   22208.52056816  .00005130  00000-0  34002-3 0  9998,2 49423  53.2176  40.0921 0001683  63.4331 296.6833 15.08855867 39172,6917.831999999999,95.437,540.861,538.533,0.0
49423.0,STARLINK-3149,PAYLOAD,2022-07-27 18:51:09,15.08852023,0.0001718,53.218,38.9029,62.6981,297.4186,0.00021907,3.201e-05,0.0,0 STARLINK-3149,1 49423U 21104R   22208.78552858  .00003201  00000-0  21907-3 0  9990,2 49423  53.2180  38.9029 0001718  62.6981 297.4186 15.08852023 39219,6917.844,95.437,540.8969999999998,538.52,0.0
49423.0,STARLINK-3149,PAYLOAD,2022-07-27 20:26:32,15.08846021,0.0001615,53.2181,38.6049,63.5265,296.5892,9.507e-05,1.226e-05,0.0,0 STARLINK-3149,1 49423U 21104R   22208.85177009  .00001226  00000-0  95070-4 0  9997,2 49423  53.2181  38.6049 0001615  63.5265 296.5892 15.08846021 40307,6917.861999999999,95.437,540.844,538.61,0.0
49423.0,STARLINK-3149,PAYLOAD,2022-07-28 12:20:24,15.08846611,0.000162,53.2185,35.6311,64.9654,295.1506,7.5804e-05,9.19e-06,0.0,0 STARLINK-3149,1 49423U 21104R   22209.51416769  .00000919  00000-0  75804-4 0  9991,2 49423  53.2185  35.6311 0001620  64.9654 295.1506 15.08846611 39325,6917.86,95.437,540.846,538.604,0.0
49423.0,STARLINK-3149,PAYLOAD,2022-07-28 18:42:01,15.08729582,0.000225,53.2188,34.4412,115.3665,244.7561,-0.0017582999999999,-0.0002808,0.0,0 STARLINK-3149,1 49423U 21104R   22209.77918116 -.00028080  00000-0 -17583-2 0  9991,2 49423  53.2188  34.4412 0002250 115.3665 244.7561 15.08729582 39362,6918.218000000003,95.445,541.64,538.526,0.0
49423.0,STARLINK-3149,PAYLOAD,2022-07-28 21:52:42,15.08847967,0.0001875,53.2185,33.8473,62.0154,298.1028,6.6281e-05,7.67e-06,0.0,0 STARLINK-3149,1 49423U 21104R   22209.91160678  .00000767  00000-0  66281-4 0  9990,2 49423  53.2185  33.8473 0001875  62.0154 298.1028 15.08847967 40464,6917.856,95.437,541.018,538.424,0.0
49423.0,STARLINK-3149,PAYLOAD,2022-07-29 12:11:11,15.0883644,0.0001524,53.2184,31.1714,63.7872,296.3277,6.1205e-05,6.86e-06,0.0,0 STARLINK-3149,1 49423U 21104R   22210.50777113  .00000686  00000-0  61205-4 0  9996,2 49423  53.2184  31.1714 0001524  63.7872 296.3277 15.08836440 39477,6917.891,95.438,540.811,538.702,0.0
49423.0,STARLINK-3149,PAYLOAD,2022-07-29 18:32:43,15.08839636,0.0001583,53.2183,29.9821,63.648,296.4674,0.00010295,1.351e-05,0.0,0 STARLINK-3149,1 49423U 21104R   22210.77273029  .00001351  00000-0  10295-3 0  9994,2 49423  53.2183  29.9821 0001583  63.6480 296.4674 15.08839636 39516,6917.882,95.438,540.842,538.651,0.0
49423.0,STARLINK-3149,PAYLOAD,2022-07-30 12:01:58,15.08844803,0.0001594,53.2183,26.7111,63.7122,296.4034,0.00012096,1.638e-05,0.0,0 STARLINK-3149,1 49423U 21104R   22211.50136793  .00001638  00000-0  12096-3 0  9991,2 49423  53.2183  26.7111 0001594  63.7122 296.4034 15.08844803 39623,6917.866,95.437,540.8330000000002,538.628,0.0
49423.0,STARLINK-3149,PAYLOAD,2022-07-30 18:23:30,15.08841658,0.0001568,53.2185,25.5213,65.5703,294.5453,8.3014e-05,1.033e-05,0.0,0 STARLINK-3149,1 49423U 21104R   22211.76632957  .00001033  00000-0  83014-4 0  9990,2 49423  53.2185  25.5213 0001568  65.5703 294.5453 15.08841658 40745,6917.875,95.437,540.825,538.656,0.0
49423.0,STARLINK-3149,PAYLOAD,2022-07-30 21:34:17,15.08834029,0.0001893,53.2185,24.9271,78.8231,281.2974,6.3766e-05,7.27e-06,0.0,0 STARLINK-3149,1 49423U 21104R   22211.89881459  .00000727  00000-0  63766-4 0  9998,2 49423  53.2185  24.9271 0001893  78.8231 281.2974 15.08834029 39682,6917.899,95.438,541.073,538.4540000000002,0.0
49423.0,STARLINK-3149,PAYLOAD,2022-07-31 11:52:46,15.08830605,0.0001486,53.2182,22.2511,58.6928,301.421,7.5555999999999984e-06,-1.68e-06,0.0,0 STARLINK-3149,1 49423U 21104R   22212.49497783 -.00000168  00000-0  75556-5 0  9999,2 49423  53.2182  22.2511 0001486  58.6928 301.4210 15.08830605 39778,6917.909000000002,95.438,540.802,538.746,0.0
49423.0,STARLINK-3149,PAYLOAD,2022-07-31 19:49:41,15.08832664,0.0001485,53.219,20.7644,61.3792,298.7349,5.4535e-05,5.8e-06,0.0,0 STARLINK-3149,1 49423U 21104R   22212.82617926  .00000580  00000-0  54535-4 0  9999,2 49423  53.2190  20.7644 0001485  61.3792 298.7349 15.08832664 39820,6917.903,95.438,540.795,538.741,0.0
49423.0,STARLINK-3149,PAYLOAD,2022-08-01 11:43:33,15.08830503,0.0001453,53.2191,17.7904,60.9315,299.1823,0.00012335,1.675e-05,0.0,0 STARLINK-3149,1 49423U 21104R   22213.48857989  .00001675  00000-0  12335-3 0  9994,2 49423  53.2191  17.7904 0001453  60.9315 299.1823 15.08830503 39920,6917.909000000002,95.438,540.78,538.769,0.0
49423.0,STARLINK-3149,PAYLOAD,2022-08-01 19:40:28,15.08835344,0.0001457,53.219,16.3039,61.2475,298.8663,0.00015307,2.149e-05,0.0,0 STARLINK-3149,1 49423U 21104R   22213.81977821  .00002149  00000-0  15307-3 0  9998,2 49423  53.2190  16.3039 0001457  61.2475 298.8663 15.08835344 41051,6917.895,95.438,540.768,538.752,0.0
49423.0,STARLINK-3149,PAYLOAD,2022-08-01 21:15:51,15.08836116,0.0001468,53.219,16.0065,61.2394,298.8746,0.00016278,2.303e-05,0.0,0 STARLINK-3149,1 49423U 21104R   22213.88601804  .00002303  00000-0  16278-3 0  9990,2 49423  53.2190  16.0065 0001468  61.2394 298.8746 15.08836116 39988,6917.892,95.438,540.773,538.742,0.0
49423.0,STARLINK-3149,PAYLOAD,2022-08-02 11:34:19,15.08843467,0.0001431999999999,53.2186,13.3301,62.4128,297.7009,0.00017631,2.519e-05,0.0,0 STARLINK-3149,1 49423U 21104R   22214.48217575  .00002519  00000-0  17631-3 0  9998,2 49423  53.2186  13.3301 0001432  62.4128 297.7009 15.08843467 40074,6917.87,95.437,540.725,538.744,0.0
49423.0,STARLINK-3149,PAYLOAD,2022-08-02 19:31:15,15.08845488,0.0001450999999999,53.2186,11.8434,62.0799,298.0339,0.00017994,2.577e-05,0.0,0 STARLINK-3149,1 49423U 21104R   22214.81337429  .00002577  00000-0  17994-3 0  9992,2 49423  53.2186  11.8434 0001451  62.0799 298.0339 15.08845488 40126,6917.864000000001,95.437,540.732,538.725,0.0
49423.0,STARLINK-3149,PAYLOAD,2022-08-03 03:28:11,15.088362900000002,0.0001476999999999,53.2176,10.3564,61.0143,299.0997,0.00015963,2.253e-05,0.0,0 STARLINK-3149,1 49423U 21104R   22215.14458018  .00002253  00000-0  15963-3 0  9992,2 49423  53.2176  10.3564 0001477  61.0143 299.0997 15.08836290 41250,6917.892,95.438,540.779,538.735,0.0
49423.0,STARLINK-3149,PAYLOAD,2022-08-03 09:49:44,15.08838924,0.0001658,53.2169,9.1668,62.2792,297.8368,2.0911e-05,4.5e-07,0.0,0 STARLINK-3149,1 49423U 21104R   22215.40953891  .00000045  00000-0  20911-4 0  9997,2 49423  53.2169   9.1668 0001658  62.2792 297.8368 15.08838924 40216,6917.884,95.438,540.896,538.602,0.0
49423.0,STARLINK-3149,PAYLOAD,2022-08-03 14:35:53,15.08838538,0.0001404,53.218,8.2748,58.8085,301.3045,7.2823e-05,8.71e-06,0.0,0 STARLINK-3149,1 49423U 21104R   22215.60826123  .00000871  00000-0  72823-4 0  9992,2 49423  53.2180   8.2748 0001404  58.8085 301.3045 15.08838538 40240,6917.885,95.438,540.721,538.779,0.0
49423.0,STARLINK-3149,PAYLOAD,2022-08-04 09:40:30,15.0884657,0.0001409,53.218,4.7063,61.302,298.8113,7.1103e-05,8.44e-06,0.0,0 STARLINK-3149,1 49423U 21104R   22216.40313466  .00000844  00000-0  71103-4 0  9992,2 49423  53.2180   4.7063 0001409  61.3020 298.8113 15.08846570 41448,6917.86,95.437,540.7,538.751,0.0
49423.0,STARLINK-3149,PAYLOAD,2022-08-04 12:51:16,15.0884963,0.0001419,53.2182,4.1118,63.15,296.9637,8.0659e-05,9.96e-06,0.0,0 STARLINK-3149,1 49423U 21104R   22216.53561227  .00000996  00000-0  80659-4 0  9990,2 49423  53.2182   4.1118 0001419  63.1500 296.9637 15.08849630 40381,6917.851,95.437,540.698,538.734,0.0
49423.0,STARLINK-3149,PAYLOAD,2022-08-04 19:12:49,15.08854364,0.0001437,53.2184,2.9224,60.9106,299.203,6.5343e-05,7.53e-06,0.0,0 STARLINK-3149,1 49423U 21104R   22216.80056880  .00000753  00000-0  65343-4 0  9998,2 49423  53.2184   2.9224 0001437  60.9106 299.2030 15.08854364 40422,6917.8359999999975,95.437,540.696,538.707,0.0
49423.0,STARLINK-3149,PAYLOAD,2022-08-05 09:31:17,15.08840797,0.0001457,53.2175,0.2463,61.2272,298.8866,9.9009e-05,1.288e-05,0.0,0 STARLINK-3149,1 49423U 21104R   22217.39673610  .00001288  00000-0  99009-4 0  9999,2 49423  53.2175   0.2463 0001457  61.2272 298.8866 15.08840797 41594,6917.878000000002,95.438,540.751,538.735,0.0
49423.0,STARLINK-3149,PAYLOAD,2022-08-05 14:17:27,15.08840931,0.0001467,53.2175,359.3541,61.4645,298.6495,9.345e-05,1.2e-05,0.0,0 STARLINK-3149,1 49423U 21104R   22217.59545618  .00001200  00000-0  93450-4 0  9995,2 49423  53.2175 359.3541 0001467  61.4645 298.6495 15.08840931 40546,6917.878000000002,95.437,540.757,538.7280000000002,0.0
